#aV2011  6 22  0  0   .00000000      96 DD+AD WGS84 FIT  NGA
## 1641 259200.00000000   900.00000000 55734  .0000000000000
+   32     1  2  3  4  5  6  7  8  9 10 11 12 13 14 15 16 17
+         18 19 20 21 22 23 24 25 26 27 28 29 30 31 32  0  0
+          0  0  0  0  0  0  0  0  0  0  0  0  0  0  0  0  0
+          0  0  0  0  0  0  0  0  0  0  0  0  0  0  0  0  0
+          0  0  0  0  0  0  0  0  0  0  0  0  0  0  0  0  0
++         0  0  0  0  0  0  0  0  0  0  0  0  0  0  0  0  0
++         0  0  0  0  0  0  0  0  0  0  0  0  0  0  0  0  0
++         0  0  0  0  0  0  0  0  0  0  0  0  0  0  0  0  0
++         0  0  0  0  0  0  0  0  0  0  0  0  0  0  0  0  0
++         0  0  0  0  0  0  0  0  0  0  0  0  0  0  0  0  0
%c cc cc ccc ccc cccc cccc cccc cccc ccccc ccccc ccccc ccccc
%c cc cc ccc ccc cccc cccc cccc cccc ccccc ccccc ccccc ccccc
%f  0.0000000  0.000000000  0.00000000000  0.000000000000000
%f  0.0000000  0.000000000  0.00000000000  0.000000000000000
%i    0    0    0    0      0      0      0      0         0
%i    0    0    0    0      0      0      0      0         0
/*      NGA, ST. LOUIS,MO.                                  
/*   EPHEMERIS COMPUTED FROM  3 DAYS OF DATA                
/* CCCCCCCCCCCCCCCCCCCCCCCCCCCCCCCCCCCCCCCCCCCCCCCCCCCCCCCCC
/* CCCCCCCCCCCCCCCCCCCCCCCCCCCCCCCCCCCCCCCCCCCCCCCCCCCCCCCCC
*  2011  6 22 23  0   .00000000                                                 
P  1 -18138.297379  14132.277536 -13623.974911     93.114255                    
V  1 -16802.326901   1620.270691  24750.002459       .025656                    
P  2 -16550.996132    782.088794 -20610.315378    343.069077                    
V  2   8681.959377 -25047.402947  -8388.927679       .019044                    
P  3  21266.052157   6048.694682  14516.137336    732.280153                    
V  3  11555.876524  15481.201371 -22405.892983       .050836                    
P  4 -10618.281024 -13463.929170 -20413.705276    151.717224                    
V  4  11014.177116 -23169.241090   9995.663325       .107591                    
P  5 -26395.098362   1160.580867  -3250.599901   -178.771326                    
V  5   3686.100080  -3420.345344 -31180.574917      -.056106                    
P  6  21139.266622  10534.780020  12533.247061    147.402788                    
V  6   8101.323369  13650.069875 -25215.622287      -.824163                    
P  7   4529.290282 -24739.419700   8181.054272     15.268855                    
V  7   6295.514953  -8656.074472 -29877.810595       .013124                    
P  8  -1657.352371 -20303.061809  16746.602501      8.267564                    
V  8  11141.129827 -18296.091282 -21647.378269       .000912                    
P  9 -14510.020124  19952.629981   9287.081313     88.132092                    
V  9   2714.575840 -12436.887666  29216.632648       .024498                    
P 10 -18254.871867 -10154.818437 -16830.390951     -4.487621                    
V 10  20545.376721  -3965.226599 -19780.440576      -.011046                    
P 11  13229.395047 -18634.340020  12927.583793   -161.831444                    
V 11   1838.846154  17716.884200  23425.884848      -.032705                    
P 12 -19177.400412  11700.325851 -14013.108871      4.287109                    
V 12 -17965.660479     78.837182  24793.657702       .025701                    
P 13  -1104.169101 -21213.151944 -16043.348932    264.360339                    
V 13  11961.110588  16176.190061 -22479.117237      -.016990                    
P 14  14911.215802  22076.500352     60.220468    157.564420                    
V 14  -1591.691483   1221.718614  32133.430706       .021665                    
P 15 -13564.501594   7680.963008  21519.853145   -120.002131                    
V 15 -16859.743639 -21525.504765  -2781.576140       .022376                    
P 16  26517.578245   -245.615927  -3327.885525   -180.767420                    
V 16  -3995.185581   2414.234722 -31536.610751      -.025154                    
P 17 -15666.604434 -21599.977317   -176.062403    183.410858                    
V 17   1893.352136  -1840.633241  31618.213179      -.005218                    
P 18   1969.012097  15848.135727  21545.896142    143.566955                    
V 18 -26562.678920   2872.306867    -59.853203       .019289                    
P 19  15682.794766  -3155.771751  21247.621891   -154.257032                    
V 19  14131.307124  22945.371456  -6667.895310      -.040915                    
P 20  16207.849662 -14369.962171 -15473.850215     50.103430                    
V 20  19650.525244   -740.006710  21528.232441       .002681                    
P 21  -1653.957388  24123.242872  10679.237072   -153.000645                    
V 21  -8513.045798  10744.398214 -27255.751211      -.025719                    
P 22  15104.043536  12122.296759  18398.195340    147.165659                    
V 22 -22733.921649   4333.302797  15847.394277      -.003416                    
P 23   8086.840260 -13733.252596 -21184.985161    297.229047                    
V 23  16778.386699  21125.218299  -7634.861494      -.028039                    
P 24  15048.412425 -20767.055830   6347.269901    400.709434                    
V 24   -505.576573   8712.643544  30248.510995       .031649                    
P 25  -6741.940694  15385.078643 -20590.045331      5.352277                    
V 25 -25954.518671   2794.438268  10624.575141       .019994                    
P 26 -18165.165711  -6232.566016  17928.876573    -68.624878                    
V 26 -12041.814325 -20530.865925 -18341.936738      -.116352                    
P 27 -16339.087211  14486.756933  15526.263673    277.636725                    
V 27   4887.303833 -18070.659627  23307.787333       .038410                    
P 28 -11234.439703 -13141.394036  20753.072257     46.690263                    
V 28  24927.171989  -2819.123184  11764.514619       .027122                    
P 29     73.080622  20488.029000 -16852.297329    217.361852                    
V 29 -13846.396319 -16572.569517 -20070.556763       .030828                    
P 30  22904.135991   5149.315596 -12861.146033     14.658713                    
V 30 -15062.895520   4785.552301 -25722.966073       .049777                    
P 31  11103.700063  10619.351030 -21438.020652     99.706219                    
V 31 -11433.619099  25203.798681   6708.118025       .059448                    
P 32  23022.318419  -7924.982164  -9813.440317   -278.246057                    
V 32  13127.155260   2518.726671  28388.474192      -.071363                    
EOF
